[{"OBJECT_NAME":"STARLINK-3624","OBJECT_ID":"2022-017F","EPOCH":"2026-03-09T22:31:07.696128","MEAN_MOTION":15.08850831,"ECCENTRICITY":0.00016374,"INCLINATION":53.2195,"RA_OF_ASC_NODE":337.9769,"ARG_OF_PERICENTER":88.374,"MEAN_ANOMALY":271.7439,"EPHEMERIS_TYPE":0,"CLASSIFICATION_TYPE":"U","NORAD_CAT_ID":51773,"ELEMENT_SET_NO":999,"REV_AT_EPOCH":22264,"BSTAR":0.00017530862,"MEAN_MOTION_DOT":2.504e-5,"MEAN_MOTION_DDOT":0},{"OBJECT_NAME":"ICEYE-X67","OBJECT_ID":"2025-248K","EPOCH":"2026-03-09T22:00:01.999584","MEAN_MOTION":15.09405994,"ECCENTRICITY":0.00063951,"INCLINATION":45.4045,"RA_OF_ASC_NODE":295.7576,"ARG_OF_PERICENTER":209.4534,"MEAN_ANOMALY":51.9892,"EPHEMERIS_TYPE":0,"CLASSIFICATION_TYPE":"U","NORAD_CAT_ID":66302,"ELEMENT_SET_NO":999,"REV_AT_EPOCH":578,"BSTAR":-0.000164009,"MEAN_MOTION_DOT":-2.917e-5,"MEAN_MOTION_DDOT":0}]
